STARLINK-36435          
1 67568U 26016H   26034.50002314 -.01767605  86021-3 -55738-2 0  9991
2 67568  97.2804  93.1570 0001395  96.2535 201.8020 15.91431839  2556
STARLINK-36575          
1 67569U 26016J   26034.50002314 -.01759913  85520-3 -54857-2 0  9999
2 67569  97.2800  93.1594 0001276  94.7673 207.6095 15.91657885  2550
STARLINK-36562          
1 67570U 26016K   26034.50002314 -.01750810  84837-3 -54116-2 0  9996
2 67570  97.2797  93.1605 0001368  92.2719 213.3781 15.91821011  2556
STARLINK-36578          
1 67571U 26016L   26034.50002314 -.01737037  83758-3 -53169-2 0  9991
2 67571  97.2797  93.1618 0001226  96.1620 213.1747 15.92009625  2536
STARLINK-36350          
1 67572U 26016M   26034.50002314 -.01735341  83812-3 -52458-2 0  9999
2 67572  97.2799  93.1638 0001331  88.2228 225.6413 15.92252284  2443
STARLINK-36588          
1 67573U 26016N   26034.50002314 -.01733308  83863-3 -51660-2 0  9991
2 67573  97.2789  93.1656 0001241  93.1126 225.7865 15.92526654  2600
STARLINK-36594          
1 67574U 26016P   26034.50002314 -.01727645  83488-3 -51072-2 0  9999
2 67574  97.2785  93.1663 0001226  88.6099 233.3853 15.92684324  2607
STARLINK-36400          
1 67575U 26016Q   26034.50002314 -.01723394  83255-3 -50483-2 0  9994
2 67575  97.2788  93.1686 0001205 105.0544 220.3468 15.92860404  2492
STARLINK-36591          
1 67576U 26016R   26034.50002314 -.01717131  82848-3 -49821-2 0  9998
2 67576  97.2784  93.1693 0001285 100.1921 228.7204 15.93043513  2552
STARLINK-36590          
1 67577U 26016S   26034.50002314 -.01707940  82163-3 -49131-2 0  9990
2 67577  97.2779  93.1709 0001276  81.6405 250.4888 15.93207459  2556
STARLINK-36613          
1 67578U 26016T   26034.50002314 -.01702677  81862-3 -48466-2 0  9998
2 67578  97.2777  93.1722 0001215  87.9709 247.9675 15.93409145  2550
STARLINK-36571          
1 67579U 26016U   26034.25002315 -.01701014  82651-3 -45704-2 0  9995
2 67579  97.2777  92.9065 0001246  63.0164 284.0353 15.94508142  2511
