CCSDS_OMM_VERS = 2.0
CREATION_DATE  = 
ORIGINATOR     = 

OBJECT_NAME    = STARLINK-36435
OBJECT_ID      = 2026-016H
CENTER_NAME    = EARTH
REF_FRAME      = TEME
TIME_SYSTEM    = UTC
MEAN_ELEMENT_THEORY = SGP/SGP4

EPOCH          = 2026-02-03T12:00:01.999296
MEAN_MOTION    = 15.91431839
ECCENTRICITY   = .0001395
INCLINATION    = 97.2804
RA_OF_ASC_NODE = 93.1570
ARG_OF_PERICENTER = 96.2535
MEAN_ANOMALY   = 201.8020

EPHEMERIS_TYPE = 0
CLASSIFICATION_TYPE = U
NORAD_CAT_ID   = 67568
ELEMENT_SET_NO = 999
REV_AT_EPOCH   = 255
BSTAR          = -.55738E-2
MEAN_MOTION_DOT = -.1767605E-1
MEAN_MOTION_DDOT = .86021E-3

CCSDS_OMM_VERS = 2.0
CREATION_DATE  = 
ORIGINATOR     = 

OBJECT_NAME    = STARLINK-36575
OBJECT_ID      = 2026-016J
CENTER_NAME    = EARTH
REF_FRAME      = TEME
TIME_SYSTEM    = UTC
MEAN_ELEMENT_THEORY = SGP/SGP4

EPOCH          = 2026-02-03T12:00:01.999296
MEAN_MOTION    = 15.91657885
ECCENTRICITY   = .0001276
INCLINATION    = 97.2800
RA_OF_ASC_NODE = 93.1594
ARG_OF_PERICENTER = 94.7673
MEAN_ANOMALY   = 207.6095

EPHEMERIS_TYPE = 0
CLASSIFICATION_TYPE = U
NORAD_CAT_ID   = 67569
ELEMENT_SET_NO = 999
REV_AT_EPOCH   = 255
BSTAR          = -.54857E-2
MEAN_MOTION_DOT = -.1759913E-1
MEAN_MOTION_DDOT = .8552E-3

CCSDS_OMM_VERS = 2.0
CREATION_DATE  = 
ORIGINATOR     = 

OBJECT_NAME    = STARLINK-36562
OBJECT_ID      = 2026-016K
CENTER_NAME    = EARTH
REF_FRAME      = TEME
TIME_SYSTEM    = UTC
MEAN_ELEMENT_THEORY = SGP/SGP4

EPOCH          = 2026-02-03T12:00:01.999296
MEAN_MOTION    = 15.91821011
ECCENTRICITY   = .0001368
INCLINATION    = 97.2797
RA_OF_ASC_NODE = 93.1605
ARG_OF_PERICENTER = 92.2719
MEAN_ANOMALY   = 213.3781

EPHEMERIS_TYPE = 0
CLASSIFICATION_TYPE = U
NORAD_CAT_ID   = 67570
ELEMENT_SET_NO = 999
REV_AT_EPOCH   = 255
BSTAR          = -.54116E-2
MEAN_MOTION_DOT = -.175081E-1
MEAN_MOTION_DDOT = .84837E-3

CCSDS_OMM_VERS = 2.0
CREATION_DATE  = 
ORIGINATOR     = 

OBJECT_NAME    = STARLINK-36578
OBJECT_ID      = 2026-016L
CENTER_NAME    = EARTH
REF_FRAME      = TEME
TIME_SYSTEM    = UTC
MEAN_ELEMENT_THEORY = SGP/SGP4

EPOCH          = 2026-02-03T12:00:01.999296
MEAN_MOTION    = 15.92009625
ECCENTRICITY   = .0001226
INCLINATION    = 97.2797
RA_OF_ASC_NODE = 93.1618
ARG_OF_PERICENTER = 96.1620
MEAN_ANOMALY   = 213.1747

EPHEMERIS_TYPE = 0
CLASSIFICATION_TYPE = U
NORAD_CAT_ID   = 67571
ELEMENT_SET_NO = 999
REV_AT_EPOCH   = 253
BSTAR          = -.53169E-2
MEAN_MOTION_DOT = -.1737037E-1
MEAN_MOTION_DDOT = .83758E-3

CCSDS_OMM_VERS = 2.0
CREATION_DATE  = 
ORIGINATOR     = 

OBJECT_NAME    = STARLINK-36350
OBJECT_ID      = 2026-016M
CENTER_NAME    = EARTH
REF_FRAME      = TEME
TIME_SYSTEM    = UTC
MEAN_ELEMENT_THEORY = SGP/SGP4

EPOCH          = 2026-02-03T12:00:01.999296
MEAN_MOTION    = 15.92252284
ECCENTRICITY   = .0001331
INCLINATION    = 97.2799
RA_OF_ASC_NODE = 93.1638
ARG_OF_PERICENTER = 88.2228
MEAN_ANOMALY   = 225.6413

EPHEMERIS_TYPE = 0
CLASSIFICATION_TYPE = U
NORAD_CAT_ID   = 67572
ELEMENT_SET_NO = 999
REV_AT_EPOCH   = 244
BSTAR          = -.52458E-2
MEAN_MOTION_DOT = -.1735341E-1
MEAN_MOTION_DDOT = .83812E-3

CCSDS_OMM_VERS = 2.0
CREATION_DATE  = 
ORIGINATOR     = 

OBJECT_NAME    = STARLINK-36588
OBJECT_ID      = 2026-016N
CENTER_NAME    = EARTH
REF_FRAME      = TEME
TIME_SYSTEM    = UTC
MEAN_ELEMENT_THEORY = SGP/SGP4

EPOCH          = 2026-02-03T12:00:01.999296
MEAN_MOTION    = 15.92526654
ECCENTRICITY   = .0001241
INCLINATION    = 97.2789
RA_OF_ASC_NODE = 93.1656
ARG_OF_PERICENTER = 93.1126
MEAN_ANOMALY   = 225.7865

EPHEMERIS_TYPE = 0
CLASSIFICATION_TYPE = U
NORAD_CAT_ID   = 67573
ELEMENT_SET_NO = 999
REV_AT_EPOCH   = 260
BSTAR          = -.5166E-2
MEAN_MOTION_DOT = -.1733308E-1
MEAN_MOTION_DDOT = .83863E-3

CCSDS_OMM_VERS = 2.0
CREATION_DATE  = 
ORIGINATOR     = 

OBJECT_NAME    = STARLINK-36594
OBJECT_ID      = 2026-016P
CENTER_NAME    = EARTH
REF_FRAME      = TEME
TIME_SYSTEM    = UTC
MEAN_ELEMENT_THEORY = SGP/SGP4

EPOCH          = 2026-02-03T12:00:01.999296
MEAN_MOTION    = 15.92684324
ECCENTRICITY   = .0001226
INCLINATION    = 97.2785
RA_OF_ASC_NODE = 93.1663
ARG_OF_PERICENTER = 88.6099
MEAN_ANOMALY   = 233.3853

EPHEMERIS_TYPE = 0
CLASSIFICATION_TYPE = U
NORAD_CAT_ID   = 67574
ELEMENT_SET_NO = 999
REV_AT_EPOCH   = 260
BSTAR          = -.51072E-2
MEAN_MOTION_DOT = -.1727645E-1
MEAN_MOTION_DDOT = .83488E-3

CCSDS_OMM_VERS = 2.0
CREATION_DATE  = 
ORIGINATOR     = 

OBJECT_NAME    = STARLINK-36400
OBJECT_ID      = 2026-016Q
CENTER_NAME    = EARTH
REF_FRAME      = TEME
TIME_SYSTEM    = UTC
MEAN_ELEMENT_THEORY = SGP/SGP4

EPOCH          = 2026-02-03T12:00:01.999296
MEAN_MOTION    = 15.92860404
ECCENTRICITY   = .0001205
INCLINATION    = 97.2788
RA_OF_ASC_NODE = 93.1686
ARG_OF_PERICENTER = 105.0544
MEAN_ANOMALY   = 220.3468

EPHEMERIS_TYPE = 0
CLASSIFICATION_TYPE = U
NORAD_CAT_ID   = 67575
ELEMENT_SET_NO = 999
REV_AT_EPOCH   = 249
BSTAR          = -.50483E-2
MEAN_MOTION_DOT = -.1723394E-1
MEAN_MOTION_DDOT = .83255E-3

CCSDS_OMM_VERS = 2.0
CREATION_DATE  = 
ORIGINATOR     = 

OBJECT_NAME    = STARLINK-36591
OBJECT_ID      = 2026-016R
CENTER_NAME    = EARTH
REF_FRAME      = TEME
TIME_SYSTEM    = UTC
MEAN_ELEMENT_THEORY = SGP/SGP4

EPOCH          = 2026-02-03T12:00:01.999296
MEAN_MOTION    = 15.93043513
ECCENTRICITY   = .0001285
INCLINATION    = 97.2784
RA_OF_ASC_NODE = 93.1693
ARG_OF_PERICENTER = 100.1921
MEAN_ANOMALY   = 228.7204

EPHEMERIS_TYPE = 0
CLASSIFICATION_TYPE = U
NORAD_CAT_ID   = 67576
ELEMENT_SET_NO = 999
REV_AT_EPOCH   = 255
BSTAR          = -.49821E-2
MEAN_MOTION_DOT = -.1717131E-1
MEAN_MOTION_DDOT = .82848E-3

CCSDS_OMM_VERS = 2.0
CREATION_DATE  = 
ORIGINATOR     = 

OBJECT_NAME    = STARLINK-36590
OBJECT_ID      = 2026-016S
CENTER_NAME    = EARTH
REF_FRAME      = TEME
TIME_SYSTEM    = UTC
MEAN_ELEMENT_THEORY = SGP/SGP4

EPOCH          = 2026-02-03T12:00:01.999296
MEAN_MOTION    = 15.93207459
ECCENTRICITY   = .0001276
INCLINATION    = 97.2779
RA_OF_ASC_NODE = 93.1709
ARG_OF_PERICENTER = 81.6405
MEAN_ANOMALY   = 250.4888

EPHEMERIS_TYPE = 0
CLASSIFICATION_TYPE = U
NORAD_CAT_ID   = 67577
ELEMENT_SET_NO = 999
REV_AT_EPOCH   = 255
BSTAR          = -.49131E-2
MEAN_MOTION_DOT = -.170794E-1
MEAN_MOTION_DDOT = .82163E-3

CCSDS_OMM_VERS = 2.0
CREATION_DATE  = 
ORIGINATOR     = 

OBJECT_NAME    = STARLINK-36613
OBJECT_ID      = 2026-016T
CENTER_NAME    = EARTH
REF_FRAME      = TEME
TIME_SYSTEM    = UTC
MEAN_ELEMENT_THEORY = SGP/SGP4

EPOCH          = 2026-02-03T12:00:01.999296
MEAN_MOTION    = 15.93409145
ECCENTRICITY   = .0001215
INCLINATION    = 97.2777
RA_OF_ASC_NODE = 93.1722
ARG_OF_PERICENTER = 87.9709
MEAN_ANOMALY   = 247.9675

EPHEMERIS_TYPE = 0
CLASSIFICATION_TYPE = U
NORAD_CAT_ID   = 67578
ELEMENT_SET_NO = 999
REV_AT_EPOCH   = 255
BSTAR          = -.48466E-2
MEAN_MOTION_DOT = -.1702677E-1
MEAN_MOTION_DDOT = .81862E-3

CCSDS_OMM_VERS = 2.0
CREATION_DATE  = 
ORIGINATOR     = 

OBJECT_NAME    = STARLINK-36571
OBJECT_ID      = 2026-016U
CENTER_NAME    = EARTH
REF_FRAME      = TEME
TIME_SYSTEM    = UTC
MEAN_ELEMENT_THEORY = SGP/SGP4

EPOCH          = 2026-02-03T06:00:02.000160
MEAN_MOTION    = 15.94508142
ECCENTRICITY   = .00012464
INCLINATION    = 97.2777
RA_OF_ASC_NODE = 92.9065
ARG_OF_PERICENTER = 63.0164
MEAN_ANOMALY   = 284.0353

EPHEMERIS_TYPE = 0
CLASSIFICATION_TYPE = U
NORAD_CAT_ID   = 67579
ELEMENT_SET_NO = 999
REV_AT_EPOCH   = 251
BSTAR          = -.45703979E-2
MEAN_MOTION_DOT = -.1701014E-1
MEAN_MOTION_DDOT = .82650957E-3

